GSAT0101 (PRN E11)      
1 37846U 11060A   22365.34481827 -.00000085  00000+0  00000+0 0  9993
2 37846  57.0576  15.9893 0002689 325.6799  34.3391  1.70475968 69578
GSAT0102 (PRN E12)      
1 37847U 11060B   22365.27379189 -.00000085  00000+0  00000+0 0  9993
2 37847  57.0581  15.9908 0004540 309.6516  53.6153  1.70475281 69588
GSAT0103 (PRN E19)      
1 38857U 12055A   23001.55672455  .00000015  00000+0  00000+0 0  9993
2 38857  55.1997 136.2511 0002843 236.3111 123.6160  1.70473530 63482
GSAT0104 (PRN E20)      
1 38858U 12055B   23002.11310784  .00000010  00000+0  00000+0 0  9996
2 38858  55.2015 136.2375 0001527 175.0418 184.9114  1.70473778 63494
GSAT0201 (PRN E18)      
1 40128U 14050A   22364.94365906 -.00000118  00000+0  00000+0 0  9993
2 40128  50.1438 324.4498 1613935 131.1543 243.9611  1.85519353 56803
GSAT0202 (PRN E14)      
1 40129U 14050B   22365.20395760 -.00000119  00000+0  00000+0 0  9996
2 40129  50.1656 323.5053 1611244 131.9749 242.9446  1.85520011 57034
GSAT0203 (PRN E26)      
1 40544U 15017A   23001.88395460 -.00000085  00000+0  00000+0 0  9992
2 40544  56.8543  15.9535 0005149 263.3157  96.6626  1.70476052 47686
GSAT0204 (PRN E22)      
1 40545U 15017B   23002.13717368 -.00000085  00000+0  00000+0 0  9997
2 40545  56.8590  15.9598 0004744 252.9017 107.0834  1.70475624 10735
GSAT0205 (PRN E24)      
1 40889U 15045A   22363.97226975 -.00000008  00000+0  00000+0 0  9994
2 40889  55.5013 256.5629 0005964  18.7410 341.3464  1.70472901 45443
GSAT0206 (PRN E30)      
1 40890U 15045B   22362.43324639 -.00000004  00000+0  00000+0 0  9998
2 40890  55.5008 256.6013 0004216  12.3249 347.7567  1.70473010 45442
GSAT0209 (PRN E09)      
1 41174U 15079A   22364.95240418  .00000027  00000+0  00000+0 0  9996
2 41174  55.2159 136.0003 0001937 319.5135  40.4321  1.70474647 43221
GSAT0208 (PRN E08)      
1 41175U 15079B   23002.51822958  .00000007  00000+0  00000+0 0  9992
2 41175  55.2150 135.9283 0001256 320.9667  38.9740  1.70474623 43682
GSAT0211 (PRN E02)      
1 41549U 16030A   22362.94552081 -.00000006  00000+0  00000+0 0  9997
2 41549  55.6469 256.5407 0004711 357.3786   2.6879  1.70472855 41085
GSAT0210 (PRN E01)      
1 41550U 16030B   23001.17045493  .00000001  00000+0  00000+0 0  9993
2 41550  55.6447 256.4531 0003040 329.2378  30.8113  1.70474518 41137
GSAT0207 (PRN E07)      
1 41859U 16069A   23002.00617080  .00000010  00000+0  00000+0 0  9997
2 41859  54.8782 136.0761 0002144 286.1255  73.8029  1.70474568 37884
GSAT0212 (PRN E03)      
1 41860U 16069B   22365.68682914  .00000021  00000+0  00000+0 0  9994
2 41860  54.8752 136.1098 0001048   2.3551 357.6030  1.70473307 38118
GSAT0213 (PRN E04)      
1 41861U 16069C   23002.22521395  .00000009  00000+0  00000+0 0  9995
2 41861  54.8779 136.0728 0002568 248.3214 111.6023  1.70473429 38006
GSAT0214 (PRN E05)      
1 41862U 16069D   22365.02606658  .00000026  00000+0  00000+0 0  9990
2 41862  54.8754 136.1281 0001592 239.4802 120.4638  1.70473380 38090
GSAT0215 (PRN E21)      
1 43055U 17079A   22365.51619704 -.00000003  00000+0  00000+0 0  9994
2 43055  55.6214 256.2993 0002564 321.5353  38.5118  1.70473863 31444
GSAT0216 (PRN E25)      
1 43056U 17079B   22365.22171426 -.00000004  00000+0  00000+0 0  9998
2 43056  55.6218 256.3073 0003725 312.9050  47.1288  1.70473867 31456
GSAT0217 (PRN E27)      
1 43057U 17079C   22364.85542397 -.00000006  00000+0  00000+0 0  9998
2 43057  55.6200 256.3168 0003926 328.6663  31.3752  1.70473810 31437
GSAT0218 (PRN E31)      
1 43058U 17079D   23001.24864208  .00000001  00000+0  00000+0 0  9993
2 43058  55.6197 256.2758 0003530 312.2235  47.8139  1.70473839 31456
GSAT0221 (PRN E15)      
1 43564U 18060A   23001.14708121 -.00000084  00000+0  00000+0 0  9998
2 43564  57.2345  15.8394 0005616 277.6450  82.3279  1.70475867 27633
GSAT0222 (PRN E33)      
1 43565U 18060B   22362.84744506 -.00000082  00000+0  00000+0 0  9990
2 43565  57.2355  15.9294 0005140 282.0541  77.9241  1.70475745 27621
GSAT0219 (PRN E36)      
1 43566U 18060C   23001.00090896 -.00000084  00000+0  00000+0 0  9998
2 43566  57.2369  15.8461 0004834 283.0363  76.9463  1.70475857 27656
GSAT0220 (PRN E13)      
1 43567U 18060D   23002.39435839 -.00000084  00000+0  00000+0 0  9992
2 43567  57.2375  15.8080 0005141 282.2927  77.6868  1.70475866 27668
GSAT0223                
1 49809U 21116A   23001.66446958 -.00000084  00000+0  00000+0 0  9996
2 49809  57.2311  15.7251 0003076 237.8613 124.3161  1.70475988  6663
GSAT0224                
1 49810U 21116B   22364.72413712 -.00000084  00000+0  00000+0 0  9998
2 49810  57.2294  15.7757 0002407 244.6349 119.1924  1.70475866  6658
